start=new Date('2021-11-25T00:00:00.000Z').valueOf();
sats=[{"TLE_LINE1":"1 49448U 21104AS  21328.91667824 -.00843280  00000-0 -42265-2 0  9994","DECAY_DATE":null,"TIME_SYSTEM":"UTC","REV_AT_EPOCH":"244","ECCENTRICITY":"0.00065630","RCS_SIZE":"LARGE","PERIOD":"90.962","TLE_LINE2":"2 49448  53.2172  76.8563 0006563  62.4687 220.4960 15.83074404  2448","RA_OF_ASC_NODE":"76.8563","SEMIMAJOR_AXIS":"6699.889","OBJECT_ID":"2021-104AS","MEAN_MOTION_DDOT":"0.0000000000000","MEAN_ELEMENT_THEORY":"SGP4","OBJECT_NAME":"STARLINK-3097","PERIAPSIS":"317.357","EPOCH":"2021-11-24T22:00:00.999936","COUNTRY_CODE":"US","ELEMENT_SET_NO":"999","MEAN_MOTION":"15.83074404","SITE":"AFETR","ARG_OF_PERICENTER":"62.4687","APOAPSIS":"326.151","EPHEMERIS_TYPE":"0","GP_ID":"190426671","OBJECT_TYPE":"PAYLOAD","CLASSIFICATION_TYPE":"U","INCLINATION":"53.2172","NORAD_CAT_ID":"49448","CENTER_NAME":"EARTH","LAUNCH_DATE":"2021-11-13","MEAN_MOTION_DOT":"-0.00843280","BSTAR":"-0.00422650000000","FILE":"3223205","MEAN_ANOMALY":"220.4960","REF_FRAME":"TEME"},{"DECAY_DATE":null,"TLE_LINE1":"1 49449U 21104AT  21328.91667824 -.00843208  00000-0 -42072-2 0  9991","REV_AT_EPOCH":"244","TIME_SYSTEM":"UTC","ECCENTRICITY":"0.00072260","RCS_SIZE":"MEDIUM","OBJECT_ID":"2021-104AT","SEMIMAJOR_AXIS":"6699.658","RA_OF_ASC_NODE":"76.8507","TLE_LINE2":"2 49449  53.2172  76.8507 0007226  64.2708 221.7101 15.83156469  2441","PERIOD":"90.958","MEAN_ELEMENT_THEORY":"SGP4","MEAN_MOTION_DDOT":"0.0000000000000","ELEMENT_SET_NO":"999","EPOCH":"2021-11-24T22:00:00.999936","COUNTRY_CODE":"US","OBJECT_NAME":"STARLINK-3137","PERIAPSIS":"316.682","ARG_OF_PERICENTER":"64.2708","MEAN_MOTION":"15.83156469","SITE":"AFETR","OBJECT_TYPE":"PAYLOAD","GP_ID":"190426795","EPHEMERIS_TYPE":"0","APOAPSIS":"326.364","CLASSIFICATION_TYPE":"U","INCLINATION":"53.2172","CENTER_NAME":"EARTH","NORAD_CAT_ID":"49449","MEAN_MOTION_DOT":"-0.00843208","LAUNCH_DATE":"2021-11-13","MEAN_ANOMALY":"221.7101","FILE":"3223205","REF_FRAME":"TEME","BSTAR":"-0.00420720000000"},{"OBJECT_TYPE":"PAYLOAD","EPHEMERIS_TYPE":"0","APOAPSIS":"326.188","GP_ID":"190427050","NORAD_CAT_ID":"49450","CENTER_NAME":"EARTH","INCLINATION":"53.2172","CLASSIFICATION_TYPE":"U","FILE":"3223205","MEAN_ANOMALY":"221.1260","REF_FRAME":"TEME","BSTAR":"-0.00421550000000","MEAN_MOTION_DOT":"-0.00843247","LAUNCH_DATE":"2021-11-13","REV_AT_EPOCH":"244","TIME_SYSTEM":"UTC","DECAY_DATE":null,"TLE_LINE1":"1 49450U 21104AU  21328.91667824 -.00843247  00000-0 -42155-2 0  9998","RCS_SIZE":"MEDIUM","ECCENTRICITY":"0.00068250","MEAN_ELEMENT_THEORY":"SGP4","MEAN_MOTION_DDOT":"0.0000000000000","OBJECT_ID":"2021-104AU","TLE_LINE2":"2 49450  53.2172  76.8527 0006825  63.6534 221.1260 15.83123533  2445","PERIOD":"90.959","SEMIMAJOR_AXIS":"6699.751","RA_OF_ASC_NODE":"76.8527","ARG_OF_PERICENTER":"63.6534","MEAN_MOTION":"15.83123533","SITE":"AFETR","ELEMENT_SET_NO":"999","PERIAPSIS":"317.043","OBJECT_NAME":"STARLINK-3127","EPOCH":"2021-11-24T22:00:00.999936","COUNTRY_CODE":"US"},{"ECCENTRICITY":"0.00068280","RCS_SIZE":"LARGE","TLE_LINE1":"1 49451U 21104AV  21328.91667824 -.00843100  00000-0 -42052-2 0  9993","DECAY_DATE":null,"TIME_SYSTEM":"UTC","REV_AT_EPOCH":"244","EPOCH":"2021-11-24T22:00:00.999936","COUNTRY_CODE":"US","OBJECT_NAME":"STARLINK-3125","PERIAPSIS":"316.908","ELEMENT_SET_NO":"999","SITE":"AFETR","MEAN_MOTION":"15.83170782","ARG_OF_PERICENTER":"63.2530","RA_OF_ASC_NODE":"76.8494","SEMIMAJOR_AXIS":"6699.617","PERIOD":"90.957","TLE_LINE2":"2 49451  53.2172  76.8494 0006828  63.2530 223.3728 15.83170782  2445","OBJECT_ID":"2021-104AV","MEAN_MOTION_DDOT":"0.0000000000000","MEAN_ELEMENT_THEORY":"SGP4","INCLINATION":"53.2172","CLASSIFICATION_TYPE":"U","CENTER_NAME":"EARTH","NORAD_CAT_ID":"49451","GP_ID":"190427151","APOAPSIS":"326.057","EPHEMERIS_TYPE":"0","OBJECT_TYPE":"PAYLOAD","LAUNCH_DATE":"2021-11-13","MEAN_MOTION_DOT":"-0.00843100","BSTAR":"-0.00420520000000","MEAN_ANOMALY":"223.3728","FILE":"3223205","REF_FRAME":"TEME"},{"RCS_SIZE":"MEDIUM","ECCENTRICITY":"0.00069200","TIME_SYSTEM":"UTC","REV_AT_EPOCH":"244","TLE_LINE1":"1 49452U 21104AW  21328.91667824 -.00842962  00000-0 -41972-2 0  9999","DECAY_DATE":null,"MEAN_MOTION":"15.83205270","SITE":"AFETR","ARG_OF_PERICENTER":"63.7860","PERIAPSIS":"316.749","OBJECT_NAME":"STARLINK-3150","COUNTRY_CODE":"US","EPOCH":"2021-11-24T22:00:00.999936","ELEMENT_SET_NO":"999","MEAN_MOTION_DDOT":"0.0000000000000","MEAN_ELEMENT_THEORY":"SGP4","PERIOD":"90.955","TLE_LINE2":"2 49452  53.2172  76.8465 0006920  63.7860 224.0066 15.83205270  2442","RA_OF_ASC_NODE":"76.8465","SEMIMAJOR_AXIS":"6699.520","OBJECT_ID":"2021-104AW","NORAD_CAT_ID":"49452","CENTER_NAME":"EARTH","INCLINATION":"53.2172","CLASSIFICATION_TYPE":"U","APOAPSIS":"326.021","EPHEMERIS_TYPE":"0","GP_ID":"190426396","OBJECT_TYPE":"PAYLOAD","BSTAR":"-0.00419720000000","MEAN_ANOMALY":"224.0066","FILE":"3223205","REF_FRAME":"TEME","LAUNCH_DATE":"2021-11-13","MEAN_MOTION_DOT":"-0.00842962"},{"MEAN_MOTION_DOT":"-0.00842988","LAUNCH_DATE":"2021-11-13","FILE":"3223205","REF_FRAME":"TEME","MEAN_ANOMALY":"223.6747","BSTAR":"-0.00419250000000","CLASSIFICATION_TYPE":"U","INCLINATION":"53.2172","NORAD_CAT_ID":"49453","CENTER_NAME":"EARTH","OBJECT_TYPE":"PAYLOAD","APOAPSIS":"326.266","EPHEMERIS_TYPE":"0","GP_ID":"190426519","ELEMENT_SET_NO":"999","OBJECT_NAME":"STARLINK-3129","PERIAPSIS":"316.413","EPOCH":"2021-11-24T22:00:00.999936","COUNTRY_CODE":"US","ARG_OF_PERICENTER":"64.7216","SITE":"AFETR","MEAN_MOTION":"15.83221444","OBJECT_ID":"2021-104AX","PERIOD":"90.954","TLE_LINE2":"2 49453  53.2172  76.8459 0007353  64.7216 223.6747 15.83221444  2445","SEMIMAJOR_AXIS":"6699.474","RA_OF_ASC_NODE":"76.8459","MEAN_ELEMENT_THEORY":"SGP4","MEAN_MOTION_DDOT":"0.0000000000000","ECCENTRICITY":"0.00073530","RCS_SIZE":"MEDIUM","DECAY_DATE":null,"TLE_LINE1":"1 49453U 21104AX  21328.91667824 -.00842988  00000-0 -41925-2 0  9996","REV_AT_EPOCH":"244","TIME_SYSTEM":"UTC"},{"NORAD_CAT_ID":"49454","CENTER_NAME":"EARTH","INCLINATION":"53.2172","CLASSIFICATION_TYPE":"U","EPHEMERIS_TYPE":"0","APOAPSIS":"325.834","GP_ID":"190427278","OBJECT_TYPE":"PAYLOAD","BSTAR":"-0.00420170000000","MEAN_ANOMALY":"224.7907","FILE":"3223205","REF_FRAME":"TEME","LAUNCH_DATE":"2021-11-13","MEAN_MOTION_DOT":"-0.00842960","RCS_SIZE":"MEDIUM","ECCENTRICITY":"0.00065720","TIME_SYSTEM":"UTC","REV_AT_EPOCH":"244","TLE_LINE1":"1 49454U 21104AY  21328.91667824 -.00842960  00000-0 -42017-2 0  9990","DECAY_DATE":null,"MEAN_MOTION":"15.83188983","SITE":"AFETR","ARG_OF_PERICENTER":"62.3987","PERIAPSIS":"317.028","OBJECT_NAME":"STARLINK-3160","EPOCH":"2021-11-24T22:00:00.999936","COUNTRY_CODE":"US","ELEMENT_SET_NO":"999","MEAN_MOTION_DDOT":"0.0000000000000","MEAN_ELEMENT_THEORY":"SGP4","PERIOD":"90.956","TLE_LINE2":"2 49454  53.2172  76.8478 0006572  62.3987 224.7907 15.83188983  2448","RA_OF_ASC_NODE":"76.8478","SEMIMAJOR_AXIS":"6699.566","OBJECT_ID":"2021-104AY"},{"MEAN_MOTION_DOT":"-0.00842805","LAUNCH_DATE":"2021-11-13","REF_FRAME":"TEME","FILE":"3223205","MEAN_ANOMALY":"224.1645","BSTAR":"-0.00418300000000","CLASSIFICATION_TYPE":"U","INCLINATION":"53.2172","CENTER_NAME":"EARTH","NORAD_CAT_ID":"49455","OBJECT_TYPE":"PAYLOAD","GP_ID":"190426924","APOAPSIS":"325.977","EPHEMERIS_TYPE":"0","ELEMENT_SET_NO":"999","EPOCH":"2021-11-24T22:00:00.999936","COUNTRY_CODE":"US","PERIAPSIS":"316.437","OBJECT_NAME":"STARLINK-3145","ARG_OF_PERICENTER":"66.0765","MEAN_MOTION":"15.83268360","SITE":"AFETR","OBJECT_ID":"2021-104AZ","RA_OF_ASC_NODE":"76.8422","SEMIMAJOR_AXIS":"6699.342","TLE_LINE2":"2 49455  53.2172  76.8422 0007120  66.0765 224.1645 15.83268360  2444","PERIOD":"90.951","MEAN_ELEMENT_THEORY":"SGP4","MEAN_MOTION_DDOT":"0.0000000000000","ECCENTRICITY":"0.00071200","RCS_SIZE":"MEDIUM","DECAY_DATE":null,"TLE_LINE1":"1 49455U 21104AZ  21328.91667824 -.00842805  00000-0 -41830-2 0  9991","REV_AT_EPOCH":"244","TIME_SYSTEM":"UTC"},{"OBJECT_TYPE":"PAYLOAD","EPHEMERIS_TYPE":"0","APOAPSIS":"326.016","GP_ID":"190426672","NORAD_CAT_ID":"49456","CENTER_NAME":"EARTH","CLASSIFICATION_TYPE":"U","INCLINATION":"53.2172","MEAN_ANOMALY":"224.3893","FILE":"3223205","REF_FRAME":"TEME","BSTAR":"-0.00419030000000","MEAN_MOTION_DOT":"-0.00842929","LAUNCH_DATE":"2021-11-13","REV_AT_EPOCH":"244","TIME_SYSTEM":"UTC","DECAY_DATE":null,"TLE_LINE1":"1 49456U 21104BA  21328.91667824 -.00842929  00000-0 -41903-2 0  9990","RCS_SIZE":"MEDIUM","ECCENTRICITY":"0.00070450","MEAN_ELEMENT_THEORY":"SGP4","MEAN_MOTION_DDOT":"0.0000000000000","OBJECT_ID":"2021-104BA","TLE_LINE2":"2 49456  53.2172  76.8441 0007045  64.6336 224.3893 15.83236590  2447","PERIOD":"90.953","RA_OF_ASC_NODE":"76.8441","SEMIMAJOR_AXIS":"6699.432","ARG_OF_PERICENTER":"64.6336","MEAN_MOTION":"15.83236590","SITE":"AFETR","ELEMENT_SET_NO":"999","PERIAPSIS":"316.577","OBJECT_NAME":"STARLINK-3124","COUNTRY_CODE":"US","EPOCH":"2021-11-24T22:00:00.999936"},{"SITE":"AFETR","MEAN_MOTION":"15.83285157","ARG_OF_PERICENTER":"62.9134","PERIAPSIS":"316.662","OBJECT_NAME":"STARLINK-3132","EPOCH":"2021-11-24T22:00:00.999936","COUNTRY_CODE":"US","ELEMENT_SET_NO":"999","MEAN_MOTION_DDOT":"0.0000000000000","MEAN_ELEMENT_THEORY":"SGP4","PERIOD":"90.950","TLE_LINE2":"2 49457  53.2172  76.8411 0006714  62.9134 227.9171 15.83285157  2445","SEMIMAJOR_AXIS":"6699.295","RA_OF_ASC_NODE":"76.8411","OBJECT_ID":"2021-104BB","RCS_SIZE":"MEDIUM","ECCENTRICITY":"0.00067140","TIME_SYSTEM":"UTC","REV_AT_EPOCH":"244","TLE_LINE1":"1 49457U 21104BB  21328.91667824 -.00842636  00000-0 -41802-2 0  9994","DECAY_DATE":null,"BSTAR":"-0.00418020000000","FILE":"3223205","MEAN_ANOMALY":"227.9171","REF_FRAME":"TEME","LAUNCH_DATE":"2021-11-13","MEAN_MOTION_DOT":"-0.00842636","NORAD_CAT_ID":"49457","CENTER_NAME":"EARTH","CLASSIFICATION_TYPE":"U","INCLINATION":"53.2172","EPHEMERIS_TYPE":"0","APOAPSIS":"325.658","GP_ID":"190426796","OBJECT_TYPE":"PAYLOAD"}];
